CCSDS_OMM_VERS = 2.0
CREATION_DATE  = 
ORIGINATOR     = 

OBJECT_NAME    = SILVERSAT
OBJECT_ID      = 1998-067XV
CENTER_NAME    = EARTH
REF_FRAME      = TEME
TIME_SYSTEM    = UTC
MEAN_ELEMENT_THEORY = SGP/SGP4

EPOCH          = 2026-02-11T16:48:33.339168
MEAN_MOTION    = 15.63847385
ECCENTRICITY   = .00025233
INCLINATION    = 51.6264
RA_OF_ASC_NODE = 197.1110
ARG_OF_PERICENTER = 274.1167
MEAN_ANOMALY   = 85.9539

EPHEMERIS_TYPE = 0
CLASSIFICATION_TYPE = U
NORAD_CAT_ID   = 66909
ELEMENT_SET_NO = 999
REV_AT_EPOCH   = 1111
BSTAR          = .14215208E-2
MEAN_MOTION_DOT = .137849E-2
MEAN_MOTION_DDOT = 0

CCSDS_OMM_VERS = 2.0
CREATION_DATE  = 
ORIGINATOR     = 

OBJECT_NAME    = ISS OBJECT XW
OBJECT_ID      = 1998-067XW
CENTER_NAME    = EARTH
REF_FRAME      = TEME
TIME_SYSTEM    = UTC
MEAN_ELEMENT_THEORY = SGP/SGP4

EPOCH          = 2026-02-11T11:06:27.313632
MEAN_MOTION    = 15.62201503
ECCENTRICITY   = .00015189
INCLINATION    = 51.6249
RA_OF_ASC_NODE = 198.5199
ARG_OF_PERICENTER = 308.9215
MEAN_ANOMALY   = 51.1644

EPHEMERIS_TYPE = 0
CLASSIFICATION_TYPE = U
NORAD_CAT_ID   = 66910
ELEMENT_SET_NO = 999
REV_AT_EPOCH   = 1107
BSTAR          = .13239129E-2
MEAN_MOTION_DOT = .120044E-2
MEAN_MOTION_DDOT = 0

CCSDS_OMM_VERS = 2.0
CREATION_DATE  = 
ORIGINATOR     = 

OBJECT_NAME    = ISS OBJECT XX
OBJECT_ID      = 1998-067XX
CENTER_NAME    = EARTH
REF_FRAME      = TEME
TIME_SYSTEM    = UTC
MEAN_ELEMENT_THEORY = SGP/SGP4

EPOCH          = 2026-02-11T17:33:59.262624
MEAN_MOTION    = 15.65220206
ECCENTRICITY   = .00032148
INCLINATION    = 51.6241
RA_OF_ASC_NODE = 196.5617
ARG_OF_PERICENTER = 300.5520
MEAN_ANOMALY   = 59.5158

EPHEMERIS_TYPE = 0
CLASSIFICATION_TYPE = U
NORAD_CAT_ID   = 66911
ELEMENT_SET_NO = 999
REV_AT_EPOCH   = 1111
BSTAR          = .15414788E-2
MEAN_MOTION_DOT = .15832E-2
MEAN_MOTION_DDOT = 0

CCSDS_OMM_VERS = 2.0
CREATION_DATE  = 
ORIGINATOR     = 

OBJECT_NAME    = ISS OBJECT XY
OBJECT_ID      = 1998-067XY
CENTER_NAME    = EARTH
REF_FRAME      = TEME
TIME_SYSTEM    = UTC
MEAN_ELEMENT_THEORY = SGP/SGP4

EPOCH          = 2026-02-11T17:21:05.065920
MEAN_MOTION    = 15.59222164
ECCENTRICITY   = .00003309
INCLINATION    = 51.6279
RA_OF_ASC_NODE = 198.0151
ARG_OF_PERICENTER = 250.4462
MEAN_ANOMALY   = 109.6495

EPHEMERIS_TYPE = 0
CLASSIFICATION_TYPE = U
NORAD_CAT_ID   = 66912
ELEMENT_SET_NO = 999
REV_AT_EPOCH   = 1109
BSTAR          = .99849107E-3
MEAN_MOTION_DOT = .8019E-3
MEAN_MOTION_DDOT = 0

CCSDS_OMM_VERS = 2.0
CREATION_DATE  = 
ORIGINATOR     = 

OBJECT_NAME    = ISS OBJECT XZ
OBJECT_ID      = 1998-067XZ
CENTER_NAME    = EARTH
REF_FRAME      = TEME
TIME_SYSTEM    = UTC
MEAN_ELEMENT_THEORY = SGP/SGP4

EPOCH          = 2026-02-12T06:33:11.486304
MEAN_MOTION    = 15.49768314
ECCENTRICITY   = .00107658
INCLINATION    = 51.6304
RA_OF_ASC_NODE = 197.9345
ARG_OF_PERICENTER = 104.2322
MEAN_ANOMALY   = 255.9863

EPHEMERIS_TYPE = 0
CLASSIFICATION_TYPE = U
NORAD_CAT_ID   = 67683
ELEMENT_SET_NO = 999
REV_AT_EPOCH   = 84
BSTAR          = .73115219E-3
MEAN_MOTION_DOT = .41232E-3
MEAN_MOTION_DDOT = 0

CCSDS_OMM_VERS = 2.0
CREATION_DATE  = 
ORIGINATOR     = 

OBJECT_NAME    = GXIBA-1
OBJECT_ID      = 1998-067YA
CENTER_NAME    = EARTH
REF_FRAME      = TEME
TIME_SYSTEM    = UTC
MEAN_ELEMENT_THEORY = SGP/SGP4

EPOCH          = 2026-02-12T06:29:52.385280
MEAN_MOTION    = 15.50457317
ECCENTRICITY   = .00126432
INCLINATION    = 51.6300
RA_OF_ASC_NODE = 197.9208
ARG_OF_PERICENTER = 98.4527
MEAN_ANOMALY   = 261.7896

EPHEMERIS_TYPE = 0
CLASSIFICATION_TYPE = U
NORAD_CAT_ID   = 67684
ELEMENT_SET_NO = 999
REV_AT_EPOCH   = 84
BSTAR          = .1379127E-2
MEAN_MOTION_DOT = .80591E-3
MEAN_MOTION_DDOT = 0

CCSDS_OMM_VERS = 2.0
CREATION_DATE  = 
ORIGINATOR     = 

OBJECT_NAME    = CORAL
OBJECT_ID      = 1998-067YB
CENTER_NAME    = EARTH
REF_FRAME      = TEME
TIME_SYSTEM    = UTC
MEAN_ELEMENT_THEORY = SGP/SGP4

EPOCH          = 2026-02-12T06:32:29.201280
MEAN_MOTION    = 15.49900495
ECCENTRICITY   = .00127186
INCLINATION    = 51.6304
RA_OF_ASC_NODE = 197.9316
ARG_OF_PERICENTER = 99.7369
MEAN_ANOMALY   = 260.5056

EPHEMERIS_TYPE = 0
CLASSIFICATION_TYPE = U
NORAD_CAT_ID   = 67685
ELEMENT_SET_NO = 999
REV_AT_EPOCH   = 84
BSTAR          = .85964049E-3
MEAN_MOTION_DOT = .48879E-3
MEAN_MOTION_DDOT = 0

CCSDS_OMM_VERS = 2.0
CREATION_DATE  = 
ORIGINATOR     = 

OBJECT_NAME    = ISS OBJECT YC
OBJECT_ID      = 1998-067YC
CENTER_NAME    = EARTH
REF_FRAME      = TEME
TIME_SYSTEM    = UTC
MEAN_ELEMENT_THEORY = SGP/SGP4

EPOCH          = 2026-02-12T06:31:56.808192
MEAN_MOTION    = 15.50029172
ECCENTRICITY   = .00078502
INCLINATION    = 51.6307
RA_OF_ASC_NODE = 197.9307
ARG_OF_PERICENTER = 74.9592
MEAN_ANOMALY   = 285.2266

EPHEMERIS_TYPE = 0
CLASSIFICATION_TYPE = U
NORAD_CAT_ID   = 67686
ELEMENT_SET_NO = 999
REV_AT_EPOCH   = 84
BSTAR          = .10088546E-2
MEAN_MOTION_DOT = .5766E-3
MEAN_MOTION_DDOT = 0

CCSDS_OMM_VERS = 2.0
CREATION_DATE  = 
ORIGINATOR     = 

OBJECT_NAME    = LEOPARD
OBJECT_ID      = 1998-067YD
CENTER_NAME    = EARTH
REF_FRAME      = TEME
TIME_SYSTEM    = UTC
MEAN_ELEMENT_THEORY = SGP/SGP4

EPOCH          = 2026-02-12T06:32:46.533120
MEAN_MOTION    = 15.49848388
ECCENTRICITY   = .00078697
INCLINATION    = 51.6308
RA_OF_ASC_NODE = 197.9332
ARG_OF_PERICENTER = 77.1120
MEAN_ANOMALY   = 283.0747

EPHEMERIS_TYPE = 0
CLASSIFICATION_TYPE = U
NORAD_CAT_ID   = 67687
ELEMENT_SET_NO = 999
REV_AT_EPOCH   = 76
BSTAR          = .81564536E-3
MEAN_MOTION_DOT = .46163E-3
MEAN_MOTION_DDOT = 0

CCSDS_OMM_VERS = 2.0
CREATION_DATE  = 
ORIGINATOR     = 

OBJECT_NAME    = ISS OBJECT YE
OBJECT_ID      = 1998-067YE
CENTER_NAME    = EARTH
REF_FRAME      = TEME
TIME_SYSTEM    = UTC
MEAN_ELEMENT_THEORY = SGP/SGP4

EPOCH          = 2026-02-12T06:32:06.686304
MEAN_MOTION    = 15.49977314
ECCENTRICITY   = .00077619
INCLINATION    = 51.6309
RA_OF_ASC_NODE = 197.9306
ARG_OF_PERICENTER = 75.8041
MEAN_ANOMALY   = 284.3810

EPHEMERIS_TYPE = 0
CLASSIFICATION_TYPE = U
NORAD_CAT_ID   = 67688
ELEMENT_SET_NO = 999
REV_AT_EPOCH   = 76
BSTAR          = .91109071E-3
MEAN_MOTION_DOT = .51892E-3
MEAN_MOTION_DDOT = 0

